NORAD_CAT_ID,OBJECT_NAME,OBJECT_TYPE,EPOCH,MEAN_MOTION,ECCENTRICITY,INCLINATION,RA_OF_ASC_NODE,ARG_OF_PERICENTER,MEAN_ANOMALY,BSTAR,MEAN_MOTION_DOT,MEAN_MOTION_DDOT,TLE_LINE0,TLE_LINE1,TLE_LINE2,SEMIMAJOR_AXIS,PERIOD,APOGEE,PERIGEE,DECAYED
51141.0,STARLINK-3179,PAYLOAD,2024-07-23 01:33:07,15.0886856,0.0001195,53.2165,88.4953,87.1796,272.9332,0.00017089,2.435e-05,0.0,0 STARLINK-3179,1 51141U 22005AP  24205.06466686  .00002435  00000-0  17089-3 0  9998,2 51141  53.2165  88.4953 0001195  87.1796 272.9332 15.08868560140085,6917.793,95.436,540.485,538.831,0.0
51141.0,STARLINK-3179,PAYLOAD,2024-07-23 09:30:04,15.08844399,0.0001315,53.217,87.0099,97.3655,262.7487,7.3644e-06,-1.71e-06,0.0,0 STARLINK-3179,1 51141U 22005AP  24205.39588356 -.00000171  00000-0  73644-5 0  9990,2 51141  53.2170  87.0099 0001315  97.3655 262.7487 15.08844399140136,6917.867,95.437,540.642,538.822,0.0
51141.0,STARLINK-3179,PAYLOAD,2024-07-23 23:48:33,15.08835771,0.0001272,53.2168,84.3316,100.9875,259.126,-4.5408e-06,-3.6e-06,0.0,0 STARLINK-3179,1 51141U 22005AP  24205.99205325 -.00000360  00000-0 -45408-5 0  9996,2 51141  53.2168  84.3316 0001272 100.9875 259.1260 15.08835771140225,6917.893,95.438,540.638,538.878,0.0
51141.0,STARLINK-3179,PAYLOAD,2024-07-25 01:14:42,15.08852306,0.0001275,53.2181,79.5723,104.6216,255.4918,-0.00011549,-2.126e-05,0.0,0 STARLINK-3179,1 51141U 22005AP  24207.05188542 -.00002126  00000-0 -11549-3 0  9995,2 51141  53.2181  79.5723 0001275 104.6216 255.4918 15.08852306140380,6917.843,95.437,540.59,538.826,0.0
51141.0,STARLINK-3179,PAYLOAD,2024-07-25 15:33:11,15.08839228,0.0001298,53.2153,76.8931,103.1968,256.9169,2.7112e-05,1.44e-06,0.0,0 STARLINK-3179,1 51141U 22005AP  24207.64805019  .00000144  00000-0  27112-4 0  9995,2 51141  53.2153  76.8931 0001298 103.1968 256.9169 15.08839228140475,6917.883,95.438,540.646,538.85,0.0
51141.0,STARLINK-3179,PAYLOAD,2024-07-25 21:54:44,15.08836206,0.0001307,53.2146,75.7122,90.7513,269.3629,8.9207e-06,-1.46e-06,0.0,0 STARLINK-3179,1 51141U 22005AP  24207.91301396 -.00000146  00000-0  89207-5 0  9991,2 51141  53.2146  75.7122 0001307  90.7513 269.3629 15.08836206139408,6917.892,95.438,540.661,538.853,0.0
51141.0,STARLINK-3179,PAYLOAD,2024-07-26 21:45:30,15.08843967,9.85e-05,53.2138,71.2503,90.1487,269.9618,0.00019308,2.787e-05,0.0,0 STARLINK-3179,1 51141U 22005AP  24208.90660242  .00002787  00000-0  19308-3 0  9994,2 51141  53.2138  71.2503 0000985  90.1487 269.9618 15.08843967140664,6917.868,95.437,540.415,539.052,0.0
51141.0,STARLINK-3179,PAYLOAD,2024-07-26 23:20:53,15.08846676,0.0001074,53.2144,70.9525,91.6514,268.4601,0.00021908,3.201e-05,0.0,0 STARLINK-3179,1 51141U 22005AP  24208.97284033  .00003201  00000-0  21908-3 0  9992,2 51141  53.2144  70.9525 0001074  91.6514 268.4601 15.08846676139561,6917.86,95.437,540.468,538.982,0.0
51141.0,STARLINK-3179,PAYLOAD,2024-07-27 07:17:49,15.08840648,0.0001295,53.2142,69.4643,90.8079,269.3061,0.0001428,1.986e-05,0.0,0 STARLINK-3179,1 51141U 22005AP  24209.30404594  .00001986  00000-0  14280-3 0  9999,2 51141  53.2142  69.4643 0001295  90.8079 269.3061 15.08840648140728,6917.878,95.438,540.639,538.848,0.0
51141.0,STARLINK-3179,PAYLOAD,2024-07-27 15:14:45,15.08844218,0.0002779,53.2146,67.9748,79.5034,280.6272,9.7192e-05,1.259e-05,0.0,0 STARLINK-3179,1 51141U 22005AP  24209.63524828  .00001259  00000-0  97192-4 0  9995,2 51141  53.2146  67.9748 0002779  79.5034 280.6272 15.08844218139662,6917.867,95.437,541.655,537.81,0.0
51141.0,STARLINK-3179,PAYLOAD,2024-07-28 19:51:42,15.08842432,0.0001502,53.2172,62.6261,91.2237,268.8927,8.2312e-05,1.022e-05,0.0,0 STARLINK-3179,1 51141U 22005AP  24210.82757067  .00001022  00000-0  82312-4 0  9997,2 51141  53.2172  62.6261 0001502  91.2237 268.8927 15.08842432140957,6917.873,95.437,540.777,538.699,0.0
51141.0,STARLINK-3179,PAYLOAD,2024-07-29 00:37:50,15.08886368,6.11e-05,53.2181,61.7341,95.4859,264.6203,-0.00046719,-7.725e-05,0.0,0 STARLINK-3179,1 51141U 22005AP  24211.02627475 -.00007725  00000-0 -46719-3 0  9997,2 51141  53.2181  61.7341 0000611  95.4859 264.6203 15.08886368140982,6917.739,95.435,540.026,539.181,0.0
51141.0,STARLINK-3179,PAYLOAD,2024-07-29 06:59:23,15.08849609,0.0001254,53.2183,60.542,89.0277,271.0858,-8.5897e-05,-1.655e-05,0.0,0 STARLINK-3179,1 51141U 22005AP  24211.29124840 -.00001655  00000-0 -85897-4 0  9991,2 51141  53.2183  60.5420 0001254  89.0277 271.0858 15.08849609141027,6917.851,95.437,540.584,538.849,0.0
51141.0,STARLINK-3179,PAYLOAD,2024-07-29 21:17:52,15.08843762,0.0001502,53.2174,57.8614,101.6036,258.5125,0.00014902,2.085e-05,0.0,0 STARLINK-3179,1 51141U 22005AP  24211.88740933  .00002085  00000-0  14902-3 0  9997,2 51141  53.2174  57.8614 0001502 101.6036 258.5125 15.08843762140009,6917.869,95.437,540.773,538.695,0.0
51141.0,STARLINK-3179,PAYLOAD,2024-07-31 13:02:30,15.08841385,0.0001156,53.2159,50.4301,92.7099,267.4025,0.0001056,1.393e-05,0.0,0 STARLINK-3179,1 51141U 22005AP  24213.54341148  .00001393  00000-0  10560-3 0  9994,2 51141  53.2159  50.4301 0001156  92.7099 267.4025 15.08841385141365,6917.876,95.437,540.541,538.941,0.0
51141.0,STARLINK-3179,PAYLOAD,2024-07-31 19:24:03,15.08841156,0.0001206,53.2163,49.2388,100.7081,259.4047,6.55e-05,7.55e-06,0.0,0 STARLINK-3179,1 51141U 22005AP  24213.80837156  .00000755  00000-0  65500-4 0  9998,2 51141  53.2163  49.2388 0001206 100.7081 259.4047 15.08841156140290,6917.877,95.437,540.576,538.908,0.0
51141.0,STARLINK-3179,PAYLOAD,2024-08-01 06:31:45,15.08841545,0.0001247,53.2164,47.1581,111.3069,248.8057,5.4319e-05,5.77e-06,0.0,0 STARLINK-3179,1 51141U 22005AP  24214.27205114  .00000577  00000-0  54319-4 0  9991,2 51141  53.2164  47.1581 0001247 111.3069 248.8057 15.08841545140365,6917.876,95.437,540.603,538.878,0.0
51141.0,STARLINK-3179,PAYLOAD,2024-08-01 19:14:49,15.08846031,0.0001406,53.2166,44.7811,90.2001,269.9152,0.00022426,3.284e-05,0.0,0 STARLINK-3179,1 51141U 22005AP  24214.80196365  .00003284  00000-0  22426-3 0  9998,2 51141  53.2166  44.7811 0001406  90.2001 269.9152 15.08846031141551,6917.862,95.437,540.7,538.754,0.0
51141.0,STARLINK-3179,PAYLOAD,2024-08-01 22:25:35,15.08852926,0.0001329,53.2152,44.1839,107.3698,252.744,0.00038252,5.807e-05,0.0,0 STARLINK-3179,1 51141U 22005AP  24214.93444385  .00005807  00000-0  38252-3 0  9997,2 51141  53.2152  44.1839 0001329 107.3698 252.7440 15.08852926140465,6917.841,95.437,540.625,538.786,0.0
51141.0,STARLINK-3179,PAYLOAD,2024-08-02 19:05:38,15.08832263,0.0001389,53.2162,40.3203,80.6287,279.4862,4.2764e-05,3.93e-06,0.0,0 STARLINK-3179,1 51141U 22005AP  24215.79558009  .00000393  00000-0  42764-4 0  9990,2 51141  53.2162  40.3203 0001389  80.6287 279.4862 15.08832263141706,6917.904,95.438,540.73,538.808,0.0
51141.0,STARLINK-3179,PAYLOAD,2024-08-02 22:16:24,15.08834238,0.0001404,53.2162,39.7249,81.8266,278.2885,6.5846e-05,7.6e-06,0.0,0 STARLINK-3179,1 51141U 22005AP  24215.92805976  .00000760  00000-0  65846-4 0  9997,2 51141  53.2162  39.7249 0001404  81.8266 278.2885 15.08834238140611,6917.898,95.438,540.734,538.792,0.0
51141.0,STARLINK-3179,PAYLOAD,2024-08-03 18:56:23,15.0886517,0.0001544,53.2161,35.8644,75.7743,284.342,0.00037997,5.769e-05,0.0,0 STARLINK-3179,1 51141U 22005AP  24216.78916008  .00005769  00000-0  37997-3 0  9990,2 51141  53.2161  35.8644 0001544  75.7743 284.3420 15.08865170141852,6917.803,95.436,540.737,538.6,0.0
51141.0,STARLINK-3179,PAYLOAD,2024-08-03 22:07:09,15.08878239,0.0001408,53.2162,35.2661,83.0161,277.0991,0.00072072,0.00011213,0.0,0 STARLINK-3179,1 51141U 22005AP  24216.92163628  .00011213  00000-0  72072-3 0  9992,2 51141  53.2162  35.2661 0001408  83.0161 277.0991 15.08878239140762,6917.764,95.435,540.603,538.654,0.0
51141.0,STARLINK-3179,PAYLOAD,2024-08-04 04:28:43,15.08841618,0.0002548,53.2168,34.0727,80.1274,280.0006,2.7789e-05,1.54e-06,0.0,0 STARLINK-3179,1 51141U 22005AP  24217.18660880  .00000154  00000-0  27789-4 0  9991,2 51141  53.2168  34.0727 0002548  80.1274 280.0006 15.08841618141917,6917.875,95.437,541.503,537.978,0.0
51141.0,STARLINK-3179,PAYLOAD,2024-08-04 12:25:38,15.088395,0.0001608,53.2161,32.5919,85.8369,274.2807,-0.00014127,-2.536e-05,0.0,0 STARLINK-3179,1 51141U 22005AP  24217.51780900 -.00002536  00000-0 -14127-3 0  9993,2 51141  53.2161  32.5919 0001608  85.8369 274.2807 15.08839500140852,6917.882,95.438,540.859,538.635,0.0
51141.0,STARLINK-3179,PAYLOAD,2024-08-04 18:47:10,15.08847344,0.0001644,53.2171,31.4041,102.7595,257.3581,0.00036969,5.602e-05,0.0,0 STARLINK-3179,1 51141U 22005AP  24217.78276528  .00005602  00000-0  36969-3 0  9991,2 51141  53.2171  31.4041 0001644 102.7595 257.3581 15.08847344140897,6917.858,95.437,540.86,538.586,0.0
51141.0,STARLINK-3179,PAYLOAD,2024-08-05 18:37:58,15.08835985,0.000142,53.2163,26.9414,79.4951,280.6201,0.0015568,0.00024573,0.0,0 STARLINK-3179,1 51141U 22005AP  24218.77637609  .00024573  00000-0  15568-2 0  9991,2 51141  53.2163  26.9414 0001420  79.4951 280.6201 15.08835985142156,6917.893,95.438,540.74,538.775,0.0
51141.0,STARLINK-3179,PAYLOAD,2024-08-06 04:10:18,15.08840042,0.0001378,53.2159,25.1554,74.0414,286.073,0.0012869,0.00020252,0.0,0 STARLINK-3179,1 51141U 22005AP  24219.17381968  .00020252  00000-0  12869-2 0  9991,2 51141  53.2159  25.1554 0001378  74.0414 286.0730 15.08840042142218,6917.88,95.438,540.699,538.792,0.0
51141.0,STARLINK-3179,PAYLOAD,2024-08-06 18:28:46,15.08842979,0.0001274,53.2159,22.4797,83.9847,276.129,0.0018747,0.00029676,0.0,0 STARLINK-3179,1 51141U 22005AP  24219.76998437  .00029676  00000-0  18747-2 0  9991,2 51141  53.2159  22.4797 0001274  83.9847 276.1290 15.08842979142303,6917.871,95.437,540.618,538.855,0.0
51141.0,STARLINK-3179,PAYLOAD,2024-08-07 18:19:33,15.08861842,0.0001434,53.2164,18.02,80.1098,280.0056,0.0010161,0.0001593,0.0,0 STARLINK-3179,1 51141U 22005AP  24220.76358099  .00015930  00000-0  10161-2 0  9997,2 51141  53.2164  18.0200 0001434  80.1098 280.0056 15.08861842142454,6917.814,95.436,540.671,538.687,0.0
